LANDSAT 9               
1 49260U 21088A   24099.95231088  .00000520  00000+0  12537-3 0  9997
2 49260  98.1915 170.7295 0001389  83.9752 276.1605 14.57121939134616
